[
    {
        "Altitude(m)": 612513.9605116602,
        "Argument of Periapsis(deg)": 0.0,
        "Eccentricity": 0.0,
        "Inclination(deg)": 60.0,
        "Latitude(deg)": -28.136056773664006,
        "Longitude(deg)": -77.08687658915434,
        "Mean Anomaly(deg)": -147.2727,
        "RAAN(deg)": 184.99999999999997,
        "Satellite Name": "Test1 827",
        "Satellite Number": 827,
        "Semi-Major Axis(m)": 6980739.136638005,
        "Time(s)": 0
    },
    {
        "Altitude(m)": 612708.3287949804,
        "Argument of Periapsis(deg)": 0.00010418945913296404,
        "Eccentricity": 0.0,
        "Inclination(deg)": 60.0,
        "Latitude(deg)": -28.64779582202922,
        "Longitude(deg)": -76.7296457133545,
        "Mean Anomaly(deg)": -146.65259385453817,
        "RAAN(deg)": 184.99957995086024,
        "Satellite Name": "Test1 827",
        "Satellite Number": 827,
        "Semi-Major Axis(m)": 6980739.136638005,
        "Time(s)": 10
    },
    {
        "Altitude(m)": 612903.5237382001,
        "Argument of Periapsis(deg)": 0.0002083789182659281,
        "Eccentricity": 0.0,
        "Inclination(deg)": 60.0,
        "Latitude(deg)": -29.158294714148475,
        "Longitude(deg)": -76.36854759113965,
        "Mean Anomaly(deg)": -146.03248770907635,
        "RAAN(deg)": 184.99915990172053,
        "Satellite Name": "Test1 827",
        "Satellite Number": 827,
        "Semi-Major Axis(m)": 6980739.136638005,
        "Time(s)": 20
    },
    {
        "Altitude(m)": 613099.4741310959,
        "Argument of Periapsis(deg)": 0.00031256837739889213,
        "Eccentricity": 0.0,
        "Inclination(deg)": 60.0,
        "Latitude(deg)": -29.66751638095306,
        "Longitude(deg)": -76.00347075131315,
        "Mean Anomaly(deg)": -145.4123815636145,
        "RAAN(deg)": 184.99873985258077,
        "Satellite Name": "Test1 827",
        "Satellite Number": 827,
        "Semi-Major Axis(m)": 6980739.136638005,
        "Time(s)": 30
    },
    {
        "Altitude(m)": 613296.1082816068,
        "Argument of Periapsis(deg)": 0.0004167578365318562,
        "Eccentricity": 0.0,
        "Inclination(deg)": 60.0,
        "Latitude(deg)": -30.175422762603418,
        "Longitude(deg)": -75.63430073522632,
        "Mean Anomaly(deg)": -144.79227541815268,
        "RAAN(deg)": 184.998319803441,
        "Satellite Name": "Test1 827",
        "Satellite Number": 827,
        "Semi-Major Axis(m)": 6980739.136638005,
        "Time(s)": 40
    },
    {
        "Altitude(m)": 613493.3540475249,
        "Argument of Periapsis(deg)": 0.0005209472956648203,
        "Eccentricity": 0.0,
        "Inclination(deg)": 60.0,
        "Latitude(deg)": -30.681974769980684,
        "Longitude(deg)": -75.26092103909131,
        "Mean Anomaly(deg)": -144.1721692726908,
        "RAAN(deg)": 184.99789975430127,
        "Satellite Name": "Test1 827",
        "Satellite Number": 827,
        "Semi-Major Axis(m)": 6980739.136638005,
        "Time(s)": 50
    },
    {
        "Altitude(m)": 613691.1388684257,
        "Argument of Periapsis(deg)": 0.0006251367547977843,
        "Eccentricity": 0.0,
        "Inclination(deg)": 60.0,
        "Latitude(deg)": -31.187132244838047,
        "Longitude(deg)": -74.88321254330447,
        "Mean Anomaly(deg)": -143.552063127229,
        "RAAN(deg)": 184.99747970516157,
        "Satellite Name": "Test1 827",
        "Satellite Number": 827,
        "Semi-Major Axis(m)": 6980739.136638005,
        "Time(s)": 60
    },
    {
        "Altitude(m)": 613889.3897977192,
        "Argument of Periapsis(deg)": 0.0007293262139307483,
        "Eccentricity": 0.0,
        "Inclination(deg)": 60.0,
        "Latitude(deg)": -31.690853918572454,
        "Longitude(deg)": -74.50105294182083,
        "Mean Anomaly(deg)": -142.93195698176714,
        "RAAN(deg)": 184.9970596560218,
        "Satellite Name": "Test1 827",
        "Satellite Number": 827,
        "Semi-Major Axis(m)": 6980739.136638005,
        "Time(s)": 70
    },
    {
        "Altitude(m)": 614088.0335348943,
        "Argument of Periapsis(deg)": 0.0008335156730637124,
        "Eccentricity": 0.0,
        "Inclination(deg)": 60.0,
        "Latitude(deg)": -32.19309736957883,
        "Longitude(deg)": -74.11431768464116,
        "Mean Anomaly(deg)": -142.31185083630533,
        "RAAN(deg)": 184.99663960688204,
        "Satellite Name": "Test1 827",
        "Satellite Number": 827,
        "Semi-Major Axis(m)": 6980739.136638005,
        "Time(s)": 80
    },
    {
        "Altitude(m)": 614286.9964579294,
        "Argument of Periapsis(deg)": 0.0009377051321966765,
        "Eccentricity": 0.0,
        "Inclination(deg)": 60.0,
        "Latitude(deg)": -32.693818979146926,
        "Longitude(deg)": -73.72287940787388,
        "Mean Anomaly(deg)": -141.6917446908435,
        "RAAN(deg)": 184.9962195577423,
        "Satellite Name": "Test1 827",
        "Satellite Number": 827,
        "Semi-Major Axis(m)": 6980739.136638005,
        "Time(s)": 90
    },
    {
        "Altitude(m)": 614486.2046557785,
        "Argument of Periapsis(deg)": 0.0010418945913296407,
        "Eccentricity": 0.0,
        "Inclination(deg)": 60.0,
        "Latitude(deg)": -33.192973885865314,
        "Longitude(deg)": -73.32660736447981,
        "Mean Anomaly(deg)": -141.0716385453817,
        "RAAN(deg)": 184.9957995086026,
        "Satellite Name": "Test1 827",
        "Satellite Number": 827,
        "Semi-Major Axis(m)": 6980739.136638005,
        "Time(s)": 100
    },
    {
        "Altitude(m)": 614685.5839610227,
        "Argument of Periapsis(deg)": 0.0011460840504626045,
        "Eccentricity": 0.0,
        "Inclination(deg)": 60.0,
        "Latitude(deg)": -33.69051593849541,
        "Longitude(deg)": -72.92536836884307,
        "Mean Anomaly(deg)": -140.4515323999199,
        "RAAN(deg)": 184.9953794594628,
        "Satellite Name": "Test1 827",
        "Satellite Number": 827,
        "Semi-Major Axis(m)": 6980739.136638005,
        "Time(s)": 110
    },
    {
        "Altitude(m)": 614885.0599825894,
        "Argument of Periapsis(deg)": 0.0012502735095955685,
        "Eccentricity": 0.0,
        "Inclination(deg)": 60.0,
        "Latitude(deg)": -34.18639764728303,
        "Longitude(deg)": -72.51902622970827,
        "Mean Anomaly(deg)": -139.83142625445805,
        "RAAN(deg)": 184.99495941032308,
        "Satellite Name": "Test1 827",
        "Satellite Number": 827,
        "Semi-Major Axis(m)": 6980739.136638005,
        "Time(s)": 120
    },
    {
        "Altitude(m)": 615084.5581385804,
        "Argument of Periapsis(deg)": 0.0013544629687285324,
        "Eccentricity": 0.0,
        "Inclination(deg)": 60.0,
        "Latitude(deg)": -34.680570133673285,
        "Longitude(deg)": -72.10744118469103,
        "Mean Anomaly(deg)": -139.2113201089962,
        "RAAN(deg)": 184.99453936118334,
        "Satellite Name": "Test1 827",
        "Satellite Number": 827,
        "Semi-Major Axis(m)": 6980739.136638005,
        "Time(s)": 130
    },
    {
        "Altitude(m)": 615284.0036891374,
        "Argument of Periapsis(deg)": 0.0014586524278614966,
        "Eccentricity": 0.0,
        "Inclination(deg)": 60.0,
        "Latitude(deg)": -35.17298307840172,
        "Longitude(deg)": -71.69047084959746,
        "Mean Anomaly(deg)": -138.5912139635344,
        "RAAN(deg)": 184.99411931204358,
        "Satellite Name": "Test1 827",
        "Satellite Number": 827,
        "Semi-Major Axis(m)": 6980739.136638005,
        "Time(s)": 140
    },
    {
        "Altitude(m)": 615483.3217693962,
        "Argument of Periapsis(deg)": 0.0015628418869944607,
        "Eccentricity": 0.0,
        "Inclination(deg)": 60.0,
        "Latitude(deg)": -35.663584667934224,
        "Longitude(deg)": -71.2679696572077,
        "Mean Anomaly(deg)": -137.97110781807254,
        "RAAN(deg)": 184.99369926290385,
        "Satellite Name": "Test1 827",
        "Satellite Number": 827,
        "Semi-Major Axis(m)": 6980739.136638005,
        "Time(s)": 150
    },
    {
        "Altitude(m)": 615682.4374224482,
        "Argument of Periapsis(deg)": 0.0016670313461274247,
        "Eccentricity": 0.0,
        "Inclination(deg)": 60.0,
        "Latitude(deg)": -36.15232153923253,
        "Longitude(deg)": -70.83978829884312,
        "Mean Anomaly(deg)": -137.3510016726107,
        "RAAN(deg)": 184.99327921376414,
        "Satellite Name": "Test1 827",
        "Satellite Number": 827,
        "Semi-Major Axis(m)": 6980739.136638005,
        "Time(s)": 160
    },
    {
        "Altitude(m)": 615881.2756323275,
        "Argument of Periapsis(deg)": 0.0017712208052603888,
        "Eccentricity": 0.0,
        "Inclination(deg)": 60.0,
        "Latitude(deg)": -36.63913872282921,
        "Longitude(deg)": -70.40577468208416,
        "Mean Anomaly(deg)": -136.73089552714885,
        "RAAN(deg)": 184.99285916462438,
        "Satellite Name": "Test1 827",
        "Satellite Number": 827,
        "Semi-Major Axis(m)": 6980739.136638005,
        "Time(s)": 170
    },
    {
        "Altitude(m)": 616079.7613570397,
        "Argument of Periapsis(deg)": 0.001875410264393353,
        "Eccentricity": 0.0,
        "Inclination(deg)": 60.0,
        "Latitude(deg)": -37.12397958419601,
        "Longitude(deg)": -69.96577337942983,
        "Mean Anomaly(deg)": -136.11078938168703,
        "RAAN(deg)": 184.99243911548461,
        "Satellite Name": "Test1 827",
        "Satellite Number": 827,
        "Semi-Major Axis(m)": 6980739.136638005,
        "Time(s)": 180
    },
    {
        "Altitude(m)": 616277.8195615257,
        "Argument of Periapsis(deg)": 0.0019795997235263173,
        "Eccentricity": 0.0,
        "Inclination(deg)": 60.0,
        "Latitude(deg)": -37.60678576340037,
        "Longitude(deg)": -69.51962508136808,
        "Mean Anomaly(deg)": -135.4906832362252,
        "RAAN(deg)": 184.99201906634488,
        "Satellite Name": "Test1 827",
        "Satellite Number": 827,
        "Semi-Major Axis(m)": 6980739.136638005,
        "Time(s)": 190
    }
]